[{"OBJECT_NAME":"FLOCK 4G-14","OBJECT_ID":"2025-009BL","EPOCH":"2026-03-09T18:12:31.432032","MEAN_MOTION":15.27197201,"ECCENTRICITY":0.00030064,"INCLINATION":97.4064,"RA_OF_ASC_NODE":151.1836,"ARG_OF_PERICENTER":318.3639,"MEAN_ANOMALY":41.7371,"EPHEMERIS_TYPE":0,"CLASSIFICATION_TYPE":"U","NORAD_CAT_ID":62667,"ELEMENT_SET_NO":999,"REV_AT_EPOCH":6371,"BSTAR":0.00042675627,"MEAN_MOTION_DOT":0.0001131,"MEAN_MOTION_DDOT":0},{"OBJECT_NAME":"STARLINK-32950","OBJECT_ID":"2025-075U","EPOCH":"2026-03-09T21:41:44.354976","MEAN_MOTION":15.27601366,"ECCENTRICITY":0.00017328,"INCLINATION":42.9998,"RA_OF_ASC_NODE":269.058,"ARG_OF_PERICENTER":259.9137,"MEAN_ANOMALY":100.152,"EPHEMERIS_TYPE":0,"CLASSIFICATION_TYPE":"U","NORAD_CAT_ID":63566,"ELEMENT_SET_NO":999,"REV_AT_EPOCH":5196,"BSTAR":0.001339917,"MEAN_MOTION_DOT":0.00036818,"MEAN_MOTION_DDOT":0}]
